[{"OBJECT_NAME":"IRIDIUM 33 DEB","OBJECT_ID":"1997-051AAJ","EPOCH":"2026-04-02T12:18:31.436640","MEAN_MOTION":14.59526167,"ECCENTRICITY":0.00598675,"INCLINATION":85.9587,"RA_OF_ASC_NODE":121.157,"ARG_OF_PERICENTER":169.1225,"MEAN_ANOMALY":191.1296,"EPHEMERIS_TYPE":0,"CLASSIFICATION_TYPE":"U","NORAD_CAT_ID":39777,"ELEMENT_SET_NO":999,"REV_AT_EPOCH":61799,"BSTAR":0.0029964332,"MEAN_MOTION_DOT":0.00014627,"MEAN_MOTION_DDOT":0},{"OBJECT_NAME":"IRIDIUM 33 DEB","OBJECT_ID":"1997-051AAK","EPOCH":"2026-04-02T23:55:51.012480","MEAN_MOTION":14.55316688,"ECCENTRICITY":0.00086308,"INCLINATION":86.3826,"RA_OF_ASC_NODE":354.9021,"ARG_OF_PERICENTER":25.7197,"MEAN_ANOMALY":334.4438,"EPHEMERIS_TYPE":0,"CLASSIFICATION_TYPE":"U","NORAD_CAT_ID":39778,"ELEMENT_SET_NO":999,"REV_AT_EPOCH":62310,"BSTAR":0.0014971933,"MEAN_MOTION_DOT":6.514e-5,"MEAN_MOTION_DDOT":0},{"OBJECT_NAME":"IRIDIUM 33 DEB","OBJECT_ID":"1997-051AAN","EPOCH":"2026-04-03T02:22:51.785472","MEAN_MOTION":14.23562901,"ECCENTRICITY":0.01685441,"INCLINATION":86.3754,"RA_OF_ASC_NODE":212.0263,"ARG_OF_PERICENTER":273.7467,"MEAN_ANOMALY":268.6523,"EPHEMERIS_TYPE":0,"CLASSIFICATION_TYPE":"U","NORAD_CAT_ID":39781,"ELEMENT_SET_NO":999,"REV_AT_EPOCH":9689,"BSTAR":0.010259002,"MEAN_MOTION_DOT":0.00027129,"MEAN_MOTION_DDOT":0},{"OBJECT_NAME":"IRIDIUM 33 DEB","OBJECT_ID":"1997-051ABJ","EPOCH":"2026-04-03T01:14:33.896544","MEAN_MOTION":15.06715966,"ECCENTRICITY":0.00076413,"INCLINATION":86.3504,"RA_OF_ASC_NODE":308.9742,"ARG_OF_PERICENTER":18.0665,"MEAN_ANOMALY":134.818,"EPHEMERIS_TYPE":0,"CLASSIFICATION_TYPE":"U","NORAD_CAT_ID":40996,"ELEMENT_SET_NO":999,"REV_AT_EPOCH":64158,"BSTAR":0.0054290224,"MEAN_MOTION_DOT":0.00081518,"MEAN_MOTION_DDOT":0},{"OBJECT_NAME":"IRIDIUM 33 DEB","OBJECT_ID":"1997-051ABL","EPOCH":"2026-03-20T13:18:48.252960","MEAN_MOTION":14.45504117,"ECCENTRICITY":0.00095854,"INCLINATION":86.388,"RA_OF_ASC_NODE":11.8556,"ARG_OF_PERICENTER":105.6376,"MEAN_ANOMALY":20.7682,"EPHEMERIS_TYPE":0,"CLASSIFICATION_TYPE":"U","NORAD_CAT_ID":40998,"ELEMENT_SET_NO":999,"REV_AT_EPOCH":8094,"BSTAR":0.0004685059,"MEAN_MOTION_DOT":1.671e-5,"MEAN_MOTION_DDOT":0},{"OBJECT_NAME":"IRIDIUM 33 DEB","OBJECT_ID":"1997-051ABN","EPOCH":"2026-04-02T09:41:59.381664","MEAN_MOTION":14.38045517,"ECCENTRICITY":0.01913803,"INCLINATION":86.2821,"RA_OF_ASC_NODE":146.0705,"ARG_OF_PERICENTER":270.4412,"MEAN_ANOMALY":103.8513,"EPHEMERIS_TYPE":0,"CLASSIFICATION_TYPE":"U","NORAD_CAT_ID":46435,"ELEMENT_SET_NO":999,"REV_AT_EPOCH":9504,"BSTAR":0.0054996009,"MEAN_MOTION_DOT":0.00020647,"MEAN_MOTION_DDOT":0},{"OBJECT_NAME":"IRIDIUM 33 DEB","OBJECT_ID":"1997-051ABR","EPOCH":"2026-03-25T09:43:38.646624","MEAN_MOTION":14.42665972,"ECCENTRICITY":0.00403907,"INCLINATION":86.2626,"RA_OF_ASC_NODE":317.7811,"ARG_OF_PERICENTER":356.4504,"MEAN_ANOMALY":184.0485,"EPHEMERIS_TYPE":0,"CLASSIFICATION_TYPE":"U","NORAD_CAT_ID":46734,"ELEMENT_SET_NO":999,"REV_AT_EPOCH":64490,"BSTAR":0.00073413942,"MEAN_MOTION_DOT":2.483e-5,"MEAN_MOTION_DDOT":0},{"OBJECT_NAME":"IRIDIUM 33 DEB","OBJECT_ID":"1997-051ABX","EPOCH":"2026-04-03T12:46:06.255840","MEAN_MOTION":14.61214732,"ECCENTRICITY":0.00174429,"INCLINATION":86.3292,"RA_OF_ASC_NODE":291.0853,"ARG_OF_PERICENTER":310.3961,"MEAN_ANOMALY":78.8466,"EPHEMERIS_TYPE":0,"CLASSIFICATION_TYPE":"U","NORAD_CAT_ID":46965,"ELEMENT_SET_NO":999,"REV_AT_EPOCH":63900,"BSTAR":0.0010446062,"MEAN_MOTION_DOT":5.178e-5,"MEAN_MOTION_DDOT":0},{"OBJECT_NAME":"IRIDIUM 33 DEB","OBJECT_ID":"1997-051ACD","EPOCH":"2026-04-03T06:06:51.068736","MEAN_MOTION":15.06035361,"ECCENTRICITY":0.00054827,"INCLINATION":86.3244,"RA_OF_ASC_NODE":280.2657,"ARG_OF_PERICENTER":258.8751,"MEAN_ANOMALY":226.8335,"EPHEMERIS_TYPE":0,"CLASSIFICATION_TYPE":"U","NORAD_CAT_ID":46971,"ELEMENT_SET_NO":999,"REV_AT_EPOCH":65904,"BSTAR":0.0039691559,"MEAN_MOTION_DOT":0.00058321,"MEAN_MOTION_DDOT":0},{"OBJECT_NAME":"IRIDIUM 33 DEB","OBJECT_ID":"1997-051ACE","EPOCH":"2026-03-21T00:51:06.959808","MEAN_MOTION":14.51201793,"ECCENTRICITY":0.00106128,"INCLINATION":86.3927,"RA_OF_ASC_NODE":357.0817,"ARG_OF_PERICENTER":126.491,"MEAN_ANOMALY":247.8233,"EPHEMERIS_TYPE":0,"CLASSIFICATION_TYPE":"U","NORAD_CAT_ID":46972,"ELEMENT_SET_NO":999,"REV_AT_EPOCH":62998,"BSTAR":0.00045931459,"MEAN_MOTION_DOT":1.845e-5,"MEAN_MOTION_DDOT":0},{"OBJECT_NAME":"IRIDIUM 33 DEB","OBJECT_ID":"1997-051ACG","EPOCH":"2026-04-03T15:09:41.364000","MEAN_MOTION":14.47070736,"ECCENTRICITY":0.0088077,"INCLINATION":86.2973,"RA_OF_ASC_NODE":56.2944,"ARG_OF_PERICENTER":172.4204,"MEAN_ANOMALY":187.8355,"EPHEMERIS_TYPE":0,"CLASSIFICATION_TYPE":"U","NORAD_CAT_ID":46974,"ELEMENT_SET_NO":999,"REV_AT_EPOCH":59125,"BSTAR":0.0043674,"MEAN_MOTION_DOT":0.0001674,"MEAN_MOTION_DDOT":0}]
